ONEWEB-0171             
1 48070U 21025AE  25324.13930701 -.00000243  00000+0 -69998-3 0  9993
2 48070  87.8993   1.7944 0001953  94.7549 265.3803 13.13469176226172
ONEWEB-0172             
1 48071U 21025AF  25324.11900828  .00000043  00000+0  83576-4 0  9994
2 48071  87.9011   1.7765 0001917  91.8799 268.2549 13.13469264227067
ONEWEB-0174             
1 48072U 21025AG  25324.17656527  .00000382  00000+0  10123-2 0  9997
2 48072  87.8998   1.7714 0001688  94.0230 266.1092 13.13469673226394
ONEWEB-0175             
1 48073U 21025AH  25324.13085342 -.00000193  00000+0 -56442-3 0  9992
2 48073  87.9007   1.7484 0002157  94.9370 265.2005 13.13469485226044
ONEWEB-0177             
1 48074U 21025AJ  25324.14269885 -.00000225  00000+0 -65204-3 0  9992
2 48074  87.9008   1.7651 0001683  90.2327 269.8995 13.13469030226231
ONEWEB-0178             
1 48075U 21025AK  25324.16146664  .00000159  00000+0  40026-3 0  9993
2 48075  87.8997   1.8050 0002069  89.9407 270.1959 13.13469877226284
ONEWEB-0108             
1 48076U 21025AL  25324.12069943  .00000026  00000+0  35835-4 0  9990
2 48076  87.9008   1.7597 0001692 102.3697 257.7621 13.13468071226200
ONEWEB-0169             
1 48077U 21025AM  25324.15286562  .00000006  00000+0 -18160-4 0  9993
2 48077  87.9001   1.7749 0001725 102.7909 257.3413 13.13472172224862
